{"type": "FeatureCollection", "features": [ {"type": "Feature", "properties": {"norad_id": 66913, "name": "2025-284A", "group": "last-30-days", "lat": -8.019277145227495, "lon": 133.67382708766937, "alt_km": 512.5121706787022, "timestamp": "2025-12-08T13:49:30.578369+00:00", "meta": {"OBJECT_NAME": "2025-284A", "OBJECT_ID": "2025-284A", "EPOCH": "2025-12-05T19:30:25.528608", "MEAN_MOTION": 15.20033669, "ECCENTRICITY": 0.00128266, "INCLINATION": 80.4023, "RA_OF_ASC_NODE": 138.5488, "ARG_OF_PERICENTER": 252.3263, "MEAN_ANOMALY": 107.6565, "EPHEMERIS_TYPE": 0, "CLASSIFICATION_TYPE": "U", "NORAD_CAT_ID": 66913, "ELEMENT_SET_NO": 999, "REV_AT_EPOCH": 7, "BSTAR": 0.00014555981, "MEAN_MOTION_DOT": 3.163e-05, "MEAN_MOTION_DDOT": 0}, "tle": {"line1": "1 66913U 25284A   25339.81279547  .00003163  00000+0  14556-3 0  9997", "line2": "2 66913  80.4023 138.5488 0012826 252.3263 107.6565 15.20033669    75"}}, "geometry": {"type": "Point", "coordinates": [133.67382708766937, -8.019277145227495]}}, {"type": "Feature", "properties": {"norad_id": 66915, "name": "HULIANWANG DIGUI 14A", "group": "last-30-days", "lat": -4.239483391496486, "lon": 130.64800898811177, "alt_km": 877.4599710209295, "timestamp": "2025-12-08T13:49:30.578381+00:00", "meta": {"OBJECT_NAME": "HULIANWANG DIGUI 14A", "OBJECT_ID": "2025-285A", "EPOCH": "2025-12-06T08:58:45.410016", "MEAN_MOTION": 14.06225102, "ECCENTRICITY": 0.00087698, "INCLINATION": 49.9887, "RA_OF_ASC_NODE": 143.2276, "ARG_OF_PERICENTER": 217.1051, "MEAN_ANOMALY": 142.9249, "EPHEMERIS_TYPE": 0, "CLASSIFICATION_TYPE": "U", "NORAD_CAT_ID": 66915, "ELEMENT_SET_NO": 999, "REV_AT_EPOCH": 1, "BSTAR": 1.8511052e-05, "MEAN_MOTION_DOT": -1.22e-06, "MEAN_MOTION_DDOT": 0}, "tle": {"line1": "1 66915U 25285A   25340.37413669 -.00000122  00000+0  18511-4 0  9997", "line2": "2 66915  49.9887 143.2276 0008769 217.1051 142.9249 14.06225102    11"}}, "geometry": {"type": "Point", "coordinates": [130.64800898811177, -4.239483391496486]}}, {"type": "Feature", "properties": {"norad_id": 66916, "name": "HULIANWANG DIGUI 14B", "group": "last-30-days", "lat": -5.942336362339857, "lon": 129.26664178955792, "alt_km": 873.7372987875196, "timestamp": "2025-12-08T13:49:30.578391+00:00", "meta": {"OBJECT_NAME": "HULIANWANG DIGUI 14B", "OBJECT_ID": "2025-285B", "EPOCH": "2025-12-06T12:23:28.538592", "MEAN_MOTION": 14.0595389, "ECCENTRICITY": 0.0008093, "INCLINATION": 50.0119, "RA_OF_ASC_NODE": 142.6984, "ARG_OF_PERICENTER": 262.9615, "MEAN_ANOMALY": 97.037, "EPHEMERIS_TYPE": 0, "CLASSIFICATION_TYPE": "U", "NORAD_CAT_ID": 66916, "ELEMENT_SET_NO": 999, "REV_AT_EPOCH": 3, "BSTAR": 1.7671e-05, "MEAN_MOTION_DOT": -1.23e-06, "MEAN_MOTION_DDOT": 0}, "tle": {"line1": "1 66916U 25285B   25340.51630253 -.00000123  00000+0  17671-4 0  9991", "line2": "2 66916  50.0119 142.6984 0008093 262.9615  97.0370 14.05953890    34"}}, "geometry": {"type": "Point", "coordinates": [129.26664178955792, -5.942336362339857]}}, {"type": "Feature", "properties": {"norad_id": 66917, "name": "HULIANWANG DIGUI 14C", "group": "last-30-days", "lat": -6.126516661292743, "lon": 129.09424304850162, "alt_km": 874.9642442459844, "timestamp": "2025-12-08T13:49:30.578402+00:00", "meta": {"OBJECT_NAME": "HULIANWANG DIGUI 14C", "OBJECT_ID": "2025-285C", "EPOCH": "2025-12-08T08:44:38.755680", "MEAN_MOTION": 14.05578781, "ECCENTRICITY": 0.0007507, "INCLINATION": 50.0019, "RA_OF_ASC_NODE": 135.1297, "ARG_OF_PERICENTER": 270.467, "MEAN_ANOMALY": 89.5375, "EPHEMERIS_TYPE": 0, "CLASSIFICATION_TYPE": "U", "NORAD_CAT_ID": 66917, "ELEMENT_SET_NO": 999, "REV_AT_EPOCH": 29, "BSTAR": -6.4208e-06, "MEAN_MOTION_DOT": -1.63e-06, "MEAN_MOTION_DDOT": 0}, "tle": {"line1": "1 66917U 25285C   25342.36433745 -.00000163  00000+0 -64208-5 0  9998", "line2": "2 66917  50.0019 135.1297 0007507 270.4670  89.5375 14.05578781   293"}}, "geometry": {"type": "Point", "coordinates": [129.09424304850162, -6.126516661292743]}}, {"type": "Feature", "properties": {"norad_id": 66918, "name": "HULIANWANG DIGUI 14D", "group": "last-30-days", "lat": -5.16746332966325, "lon": 129.9151017685553, "alt_km": 873.566654646309, "timestamp": "2025-12-08T13:49:30.578411+00:00", "meta": {"OBJECT_NAME": "HULIANWANG DIGUI 14D", "OBJECT_ID": "2025-285D", "EPOCH": "2025-12-08T10:26:43.431360", "MEAN_MOTION": 14.05959486, "ECCENTRICITY": 0.0008191, "INCLINATION": 50.0064, "RA_OF_ASC_NODE": 134.8446, "ARG_OF_PERICENTER": 270.94, "MEAN_ANOMALY": 89.0567, "EPHEMERIS_TYPE": 0, "CLASSIFICATION_TYPE": "U", "NORAD_CAT_ID": 66918, "ELEMENT_SET_NO": 999, "REV_AT_EPOCH": 30, "BSTAR": 1.1296e-05, "MEAN_MOTION_DOT": -1.34e-06, "MEAN_MOTION_DDOT": 0}, "tle": {"line1": "1 66918U 25285D   25342.43522490 -.00000134  00000+0  11296-4 0  9998", "line2": "2 66918  50.0064 134.8446 0008191 270.9400  89.0567 14.05959486   307"}}, "geometry": {"type": "Point", "coordinates": [129.9151017685553, -5.16746332966325]}}, {"type": "Feature", "properties": {"norad_id": 66919, "name": "HULIANWANG DIGUI 14E", "group": "last-30-days", "lat": -4.487963053483872, "lon": 130.4859414527756, "alt_km": 872.1684044619296, "timestamp": "2025-12-08T13:49:30.578421+00:00", "meta": {"OBJECT_NAME": "HULIANWANG DIGUI 14E", "OBJECT_ID": "2025-285E", "EPOCH": "2025-12-07T22:30:08.756640", "MEAN_MOTION": 14.06180364, "ECCENTRICITY": 0.00078534, "INCLINATION": 50.0053, "RA_OF_ASC_NODE": 136.8752, "ARG_OF_PERICENTER": 276.2161, "MEAN_ANOMALY": 83.7849, "EPHEMERIS_TYPE": 0, "CLASSIFICATION_TYPE": "U", "NORAD_CAT_ID": 66919, "ELEMENT_SET_NO": 999, "REV_AT_EPOCH": 23, "BSTAR": -1.3856152e-05, "MEAN_MOTION_DOT": -1.75e-06, "MEAN_MOTION_DDOT": 0}, "tle": {"line1": "1 66919U 25285E   25341.93760135 -.00000175  00000+0 -13856-4 0  9993", "line2": "2 66919  50.0053 136.8752 0007853 276.2161  83.7849 14.06180364   233"}}, "geometry": {"type": "Point", "coordinates": [130.4859414527756, -4.487963053483872]}}, {"type": "Feature", "properties": {"norad_id": 66920, "name": "HULIANWANG DIGUI 14F", "group": "last-30-days", "lat": -3.95511679955069, "lon": 130.93888452618256, "alt_km": 872.7262125425805, "timestamp": "2025-12-08T13:49:30.578431+00:00", "meta": {"OBJECT_NAME": "HULIANWANG DIGUI 14F", "OBJECT_ID": "2025-285F", "EPOCH": "2025-12-07T22:29:57.568704", "MEAN_MOTION": 14.06197734, "ECCENTRICITY": 0.0005825, "INCLINATION": 50.0078, "RA_OF_ASC_NODE": 136.8777, "ARG_OF_PERICENTER": 272.4455, "MEAN_ANOMALY": 87.5784, "EPHEMERIS_TYPE": 0, "CLASSIFICATION_TYPE": "U", "NORAD_CAT_ID": 66920, "ELEMENT_SET_NO": 999, "REV_AT_EPOCH": 23, "BSTAR": 0.00011290179, "MEAN_MOTION_DOT": 3.4e-07, "MEAN_MOTION_DDOT": 0}, "tle": {"line1": "1 66920U 25285F   25341.93747186  .00000034  00000+0  11290-3 0  9997", "line2": "2 66920  50.0078 136.8777 0005825 272.4455  87.5784 14.06197734   239"}}, "geometry": {"type": "Point", "coordinates": [130.93888452618256, -3.95511679955069]}}, {"type": "Feature", "properties": {"norad_id": 66921, "name": "HULIANWANG DIGUI 14G", "group": "last-30-days", "lat": -4.285151467166302, "lon": 130.66320536635027, "alt_km": 873.1087783676458, "timestamp": "2025-12-08T13:49:30.578441+00:00", "meta": {"OBJECT_NAME": "HULIANWANG DIGUI 14G", "OBJECT_ID": "2025-285G", "EPOCH": "2025-12-08T08:44:01.536288", "MEAN_MOTION": 14.05883004, "ECCENTRICITY": 0.0006916, "INCLINATION": 50.0115, "RA_OF_ASC_NODE": 135.1359, "ARG_OF_PERICENTER": 280.588, "MEAN_ANOMALY": 79.4246, "EPHEMERIS_TYPE": 0, "CLASSIFICATION_TYPE": "U", "NORAD_CAT_ID": 66921, "ELEMENT_SET_NO": 999, "REV_AT_EPOCH": 29, "BSTAR": 1.2065e-05, "MEAN_MOTION_DOT": -1.32e-06, "MEAN_MOTION_DDOT": 0}, "tle": {"line1": "1 66921U 25285G   25342.36390667 -.00000132  00000+0  12065-4 0  9996", "line2": "2 66921  50.0115 135.1359 0006916 280.5880  79.4246 14.05883004   294"}}, "geometry": {"type": "Point", "coordinates": [130.66320536635027, -4.285151467166302]}}, {"type": "Feature", "properties": {"norad_id": 66922, "name": "HULIANWANG DIGUI 14H", "group": "last-30-days", "lat": -3.604968957372441, "lon": 131.23309399593066, "alt_km": 872.1816870791308, "timestamp": "2025-12-08T13:49:30.578456+00:00", "meta": {"OBJECT_NAME": "HULIANWANG DIGUI 14H", "OBJECT_ID": "2025-285H", "EPOCH": "2025-12-08T08:43:47.873856", "MEAN_MOTION": 14.05998696, "ECCENTRICITY": 0.0006903, "INCLINATION": 50.0079, "RA_OF_ASC_NODE": 135.1325, "ARG_OF_PERICENTER": 286.9247, "MEAN_ANOMALY": 73.0902, "EPHEMERIS_TYPE": 0, "CLASSIFICATION_TYPE": "U", "NORAD_CAT_ID": 66922, "ELEMENT_SET_NO": 999, "REV_AT_EPOCH": 29, "BSTAR": -1.047e-05, "MEAN_MOTION_DOT": -1.7e-06, "MEAN_MOTION_DDOT": 0}, "tle": {"line1": "1 66922U 25285H   25342.36374854 -.00000170  00000+0 -10470-4 0  9998", "line2": "2 66922  50.0079 135.1325 0006903 286.9247  73.0902 14.05998696   293"}}, "geometry": {"type": "Point", "coordinates": [131.23309399593066, -3.604968957372441]}}, {"type": "Feature", "properties": {"norad_id": 66923, "name": "HULIANWANG DIGUI 14J", "group": "last-30-days", "lat": -2.4630088558060947, "lon": 132.19208004477315, "alt_km": 871.0709779327808, "timestamp": "2025-12-08T13:49:30.578466+00:00", "meta": {"OBJECT_NAME": "HULIANWANG DIGUI 14J", "OBJECT_ID": "2025-285J", "EPOCH": "2025-12-07T22:29:36.786048", "MEAN_MOTION": 14.06515715, "ECCENTRICITY": 0.00053876, "INCLINATION": 50.0075, "RA_OF_ASC_NODE": 136.8754, "ARG_OF_PERICENTER": 280.8946, "MEAN_ANOMALY": 79.1354, "EPHEMERIS_TYPE": 0, "CLASSIFICATION_TYPE": "U", "NORAD_CAT_ID": 66923, "ELEMENT_SET_NO": 999, "REV_AT_EPOCH": 23, "BSTAR": -4.7305e-07, "MEAN_MOTION_DOT": -1.53e-06, "MEAN_MOTION_DDOT": 0}, "tle": {"line1": "1 66923U 25285J   25341.93723132 -.00000153  00000+0 -47305-6 0  9998", "line2": "2 66923  50.0075 136.8754 0005387 280.8946  79.1354 14.06515715   238"}}, "geometry": {"type": "Point", "coordinates": [132.19208004477315, -2.4630088558060947]}}]}